{
  "type": "FeatureCollection",
  "features": [
    {
      "type": "Feature",
      "properties": {
        "norad_id": 36744,
        "name": "COMS 1",
        "group": "weather",
        "lat": -1.1496830424687965,
        "lon": -87.18252298811967,
        "alt_km": 35783.136709872386,
        "timestamp": "2025-12-20T03:42:47.035307+00:00",
        "meta_object_name": "COMS 1",
        "meta_object_id": "2010-032A",
        "meta_epoch": "2025-12-19T17:17:45.777408",
        "meta_mean_motion": 1.00272646,
        "meta_eccentricity": 7.08e-05,
        "meta_inclination": 4.3564,
        "meta_ra_of_asc_node": 77.921,
        "meta_arg_of_pericenter": 207.8228,
        "meta_mean_anomaly": 190.4357,
        "meta_ephemeris_type": 0,
        "meta_classification_type": "U",
        "meta_norad_cat_id": 36744,
        "meta_element_set_no": 999,
        "meta_rev_at_epoch": 4929,
        "meta_bstar": 0,
        "meta_mean_motion_dot": -3.23e-06,
        "meta_mean_motion_ddot": 0,
        "tle_line1": "1 36744U 10032A   25353.72066872 -.00000323  00000+0  00000+0 0  9993",
        "tle_line2": "2 36744   4.3564  77.9210 0000708 207.8228 190.4357  1.00272646 49299"
      },
      "geometry": {
        "type": "Point",
        "coordinates": [
          -87.18252298811967,
          -1.1496830424687965
        ]
      }
    },
    {
      "type": "Feature",
      "properties": {
        "norad_id": 37214,
        "name": "FENGYUN 3B",
        "group": "weather",
        "lat": -19.782628337830214,
        "lon": 37.44809385575414,
        "alt_km": 832.4514639439067,
        "timestamp": "2025-12-20T03:42:47.035319+00:00",
        "meta_object_name": "FENGYUN 3B",
        "meta_object_id": "2010-059A",
        "meta_epoch": "2025-12-19T19:50:25.220256",
        "meta_mean_motion": 14.14791821,
        "meta_eccentricity": 0.0021709,
        "meta_inclination": 98.9902,
        "meta_ra_of_asc_node": 33.8536,
        "meta_arg_of_pericenter": 337.5276,
        "meta_mean_anomaly": 132.7206,
        "meta_ephemeris_type": 0,
        "meta_classification_type": "U",
        "meta_norad_cat_id": 37214,
        "meta_element_set_no": 999,
        "meta_rev_at_epoch": 78206,
        "meta_bstar": 4.4049e-05,
        "meta_mean_motion_dot": 4e-07,
        "meta_mean_motion_ddot": 0,
        "tle_line1": "1 37214U 10059A   25353.82668079  .00000040  00000+0  44049-4 0  9994",
        "tle_line2": "2 37214  98.9902  33.8536 0021709 337.5276 132.7206 14.14791821782068"
      },
      "geometry": {
        "type": "Point",
        "coordinates": [
          37.44809385575414,
          -19.782628337830214
        ]
      }
    },
    {
      "type": "Feature",
      "properties": {
        "norad_id": 37849,
        "name": "SUOMI NPP",
        "group": "weather",
        "lat": -52.52055843676317,
        "lon": -56.94515312320895,
        "alt_km": 835.5203176262594,
        "timestamp": "2025-12-20T03:42:47.035331+00:00",
        "meta_object_name": "SUOMI NPP",
        "meta_object_id": "2011-061A",
        "meta_epoch": "2025-12-17T23:31:21.474624",
        "meta_mean_motion": 14.19515682,
        "meta_eccentricity": 0.00023932,
        "meta_inclination": 98.7779,
        "meta_ra_of_asc_node": 289.2746,
        "meta_arg_of_pericenter": 111.1248,
        "meta_mean_anomaly": 249.0184,
        "meta_ephemeris_type": 0,
        "meta_classification_type": "U",
        "meta_norad_cat_id": 37849,
        "meta_element_set_no": 999,
        "meta_rev_at_epoch": 73273,
        "meta_bstar": 4.8615036e-05,
        "meta_mean_motion_dot": 5.8e-07,
        "meta_mean_motion_ddot": 0,
        "tle_line1": "1 37849U 11061A   25351.98010966  .00000058  00000+0  48615-4 0  9995",
        "tle_line2": "2 37849  98.7779 289.2746 0002393 111.1248 249.0184 14.19515682732735"
      },
      "geometry": {
        "type": "Point",
        "coordinates": [
          -56.94515312320895,
          -52.52055843676317
        ]
      }
    },
    {
      "type": "Feature",
      "properties": {
        "norad_id": 38552,
        "name": "METEOSAT-10 (MSG-3)",
        "group": "weather",
        "lat": 4.231793442086725,
        "lon": 144.95268355557118,
        "alt_km": 35787.06022896548,
        "timestamp": "2025-12-20T03:42:47.035344+00:00",
        "meta_object_name": "METEOSAT-10 (MSG-3)",
        "meta_object_id": "2012-035B",
        "meta_epoch": "2025-12-19T08:07:49.924128",
        "meta_mean_motion": 1.00276524,
        "meta_eccentricity": 6.93e-05,
        "meta_inclination": 4.2433,
        "meta_ra_of_asc_node": 61.706,
        "meta_arg_of_pericenter": 270.066,
        "meta_mean_anomaly": 238.6463,
        "meta_ephemeris_type": 0,
        "meta_classification_type": "U",
        "meta_norad_cat_id": 38552,
        "meta_element_set_no": 999,
        "meta_rev_at_epoch": 4905,
        "meta_bstar": 0,
        "meta_mean_motion_dot": 1.7e-07,
        "meta_mean_motion_ddot": 0,
        "tle_line1": "1 38552U 12035B   25353.33877227  .00000017  00000+0  00000+0 0  9997",
        "tle_line2": "2 38552   4.2433  61.7060 0000693 270.0660 238.6463  1.00276524 49057"
      },
      "geometry": {
        "type": "Point",
        "coordinates": [
          144.95268355557118,
          4.231793442086725
        ]
      }
    },
    {
      "type": "Feature",
      "properties": {
        "norad_id": 38771,
        "name": "METOP-B",
        "group": "weather",
        "lat": -29.117249901244737,
        "lon": -140.89292649449564,
        "alt_km": 826.0679608903101,
        "timestamp": "2025-12-20T03:42:47.035355+00:00",
        "meta_object_name": "METOP-B",
        "meta_object_id": "2012-049A",
        "meta_epoch": "2025-12-19T18:17:03.286176",
        "meta_mean_motion": 14.21410914,
        "meta_eccentricity": 0.0003165,
        "meta_inclination": 98.6789,
        "meta_ra_of_asc_node": 43.6013,
        "meta_arg_of_pericenter": 129.3907,
        "meta_mean_anomaly": 230.7551,
        "meta_ephemeris_type": 0,
        "meta_classification_type": "U",
        "meta_norad_cat_id": 38771,
        "meta_element_set_no": 999,
        "meta_rev_at_epoch": 68777,
        "meta_bstar": 6.9081e-05,
        "meta_mean_motion_dot": 1.07e-06,
        "meta_mean_motion_ddot": 0,
        "tle_line1": "1 38771U 12049A   25353.76184359  .00000107  00000+0  69081-4 0  9998",
        "tle_line2": "2 38771  98.6789  43.6013 0003165 129.3907 230.7551 14.21410914687773"
      },
      "geometry": {
        "type": "Point",
        "coordinates": [
          -140.89292649449564,
          -29.117249901244737
        ]
      }
    },
    {
      "type": "Feature",
      "properties": {
        "norad_id": 39216,
        "name": "INSAT-3D",
        "group": "weather",
        "lat": -0.26185328557722815,
        "lon": -85.87550431226296,
        "alt_km": 35782.90133839106,
        "timestamp": "2025-12-20T03:42:47.035368+00:00",
        "meta_object_name": "INSAT-3D",
        "meta_object_id": "2013-038B",
        "meta_epoch": "2025-12-17T17:21:59.330304",
        "meta_mean_motion": 1.00267779,
        "meta_eccentricity": 0.00012009,
        "meta_inclination": 1.4572,
        "meta_ra_of_asc_node": 84.9421,
        "meta_arg_of_pericenter": 166.0293,
        "meta_mean_anomaly": 225.6028,
        "meta_ephemeris_type": 0,
        "meta_classification_type": "U",
        "meta_norad_cat_id": 39216,
        "meta_element_set_no": 999,
        "meta_rev_at_epoch": 4526,
        "meta_bstar": 0,
        "meta_mean_motion_dot": -3.16e-06,
        "meta_mean_motion_ddot": 0,
        "tle_line1": "1 39216U 13038B   25351.72360336 -.00000316  00000+0  00000+0 0  9991",
        "tle_line2": "2 39216   1.4572  84.9421 0001200 166.0293 225.6028  1.00267779 45261"
      },
      "geometry": {
        "type": "Point",
        "coordinates": [
          -85.87550431226296,
          -0.26185328557722815
        ]
      }
    },
    {
      "type": "Feature",
      "properties": {
        "norad_id": 39260,
        "name": "FENGYUN 3C",
        "group": "weather",
        "lat": -55.07897270441786,
        "lon": -16.193609414820624,
        "alt_km": 853.694717199618,
        "timestamp": "2025-12-20T03:42:47.035380+00:00",
        "meta_object_name": "FENGYUN 3C",
        "meta_object_id": "2013-052A",
        "meta_epoch": "2025-12-19T21:11:34.325952",
        "meta_mean_motion": 14.15698416,
        "meta_eccentricity": 0.0014684,
        "meta_inclination": 98.477,
        "meta_ra_of_asc_node": 331.2138,
        "meta_arg_of_pericenter": 175.2228,
        "meta_mean_anomaly": 184.9089,
        "meta_ephemeris_type": 0,
        "meta_classification_type": "U",
        "meta_norad_cat_id": 39260,
        "meta_element_set_no": 999,
        "meta_rev_at_epoch": 63319,
        "meta_bstar": 4.8073e-05,
        "meta_mean_motion_dot": 5.3e-07,
        "meta_mean_motion_ddot": 0,
        "tle_line1": "1 39260U 13052A   25353.88303618  .00000053  00000+0  48073-4 0  9999",
        "tle_line2": "2 39260  98.4770 331.2138 0014684 175.2228 184.9089 14.15698416633194"
      },
      "geometry": {
        "type": "Point",
        "coordinates": [
          -16.193609414820624,
          -55.07897270441786
        ]
      }
    }
  ]
}